{
  "type": "FeatureCollection",
  "features": [
    {
      "type": "Feature",
      "properties": {
        "OBJECT_NAME": "COSMOS 2407",
        "OBJECT_ID": "2004-028A",
        "EPOCH": "2025-11-30T04:25:15.121920",
        "MEAN_MOTION": 13.76311427,
        "ECCENTRICITY": 0.0040568,
        "INCLINATION": 82.9616,
        "RA_OF_ASC_NODE": 222.1877,
        "ARG_OF_PERICENTER": 88.8609,
        "MEAN_ANOMALY": 75.5835,
        "EPHEMERIS_TYPE": 0,
        "CLASSIFICATION_TYPE": "U",
        "NORAD_CAT_ID": 28380,
        "ELEMENT_SET_NO": 999,
        "REV_AT_EPOCH": 7250,
        "BSTAR": 5.4341e-05,
        "MEAN_MOTION_DOT": 6.9e-07,
        "MEAN_MOTION_DDOT": 0,
        "norad_id": 28380,
        "name": "COSMOS 2407",
        "group": "musson",
        "longitude_deg": NaN,
        "latitude_deg": NaN,
        "alt_km": NaN,
        "orbit_class": "HEO",
        "timestamp": "2025-11-30T09:33:02.501130+00:00"
      },
      "geometry": {
        "type": "Point",
        "coordinates": [
          NaN,
          NaN
        ]
      }
    },
    {
      "type": "Feature",
      "properties": {
        "OBJECT_NAME": "COSMOS 2414",
        "OBJECT_ID": "2005-002A",
        "EPOCH": "2025-11-30T01:25:08.210784",
        "MEAN_MOTION": 13.87900391,
        "ECCENTRICITY": 0.0040094,
        "INCLINATION": 82.9501,
        "RA_OF_ASC_NODE": 194.2479,
        "ARG_OF_PERICENTER": 175.41,
        "MEAN_ANOMALY": 184.7439,
        "EPHEMERIS_TYPE": 0,
        "CLASSIFICATION_TYPE": "U",
        "NORAD_CAT_ID": 28521,
        "ELEMENT_SET_NO": 999,
        "REV_AT_EPOCH": 5619,
        "BSTAR": 6.6012e-05,
        "MEAN_MOTION_DOT": 9.5e-07,
        "MEAN_MOTION_DDOT": 0,
        "norad_id": 28521,
        "name": "COSMOS 2414",
        "group": "musson",
        "longitude_deg": NaN,
        "latitude_deg": NaN,
        "alt_km": NaN,
        "orbit_class": "HEO",
        "timestamp": "2025-11-30T09:33:02.501194+00:00"
      },
      "geometry": {
        "type": "Point",
        "coordinates": [
          NaN,
          NaN
        ]
      }
    },
    {
      "type": "Feature",
      "properties": {
        "OBJECT_NAME": "COSMOS 2463",
        "OBJECT_ID": "2010-017A",
        "EPOCH": "2025-11-30T02:44:20.260896",
        "MEAN_MOTION": 13.71647406,
        "ECCENTRICITY": 0.0035227,
        "INCLINATION": 82.9625,
        "RA_OF_ASC_NODE": 35.9897,
        "ARG_OF_PERICENTER": 324.2168,
        "MEAN_ANOMALY": 58.8127,
        "EPHEMERIS_TYPE": 0,
        "CLASSIFICATION_TYPE": "U",
        "NORAD_CAT_ID": 36519,
        "ELEMENT_SET_NO": 999,
        "REV_AT_EPOCH": 78064,
        "BSTAR": 4.6838e-05,
        "MEAN_MOTION_DOT": 5.7e-07,
        "MEAN_MOTION_DDOT": 0,
        "norad_id": 36519,
        "name": "COSMOS 2463",
        "group": "musson",
        "longitude_deg": NaN,
        "latitude_deg": NaN,
        "alt_km": NaN,
        "orbit_class": "HEO",
        "timestamp": "2025-11-30T09:33:02.502472+00:00"
      },
      "geometry": {
        "type": "Point",
        "coordinates": [
          NaN,
          NaN
        ]
      }
    },
    {
      "type": "Feature",
      "properties": {
        "OBJECT_NAME": "COSMOS 2361",
        "OBJECT_ID": "1998-076A",
        "EPOCH": "2025-11-30T01:39:23.391936",
        "MEAN_MOTION": 13.73215402,
        "ECCENTRICITY": 0.0030227,
        "INCLINATION": 82.9344,
        "RA_OF_ASC_NODE": 353.4587,
        "ARG_OF_PERICENTER": 302.3423,
        "MEAN_ANOMALY": 84.8014,
        "EPHEMERIS_TYPE": 0,
        "CLASSIFICATION_TYPE": "U",
        "NORAD_CAT_ID": 25590,
        "ELEMENT_SET_NO": 999,
        "REV_AT_EPOCH": 34937,
        "BSTAR": 5.9424e-05,
        "MEAN_MOTION_DOT": 7e-07,
        "MEAN_MOTION_DDOT": 0,
        "norad_id": 25590,
        "name": "COSMOS 2361",
        "group": "musson",
        "longitude_deg": NaN,
        "latitude_deg": NaN,
        "alt_km": NaN,
        "orbit_class": "HEO",
        "timestamp": "2025-11-30T09:33:02.591933+00:00"
      },
      "geometry": {
        "type": "Point",
        "coordinates": [
          NaN,
          NaN
        ]
      }
    },
    {
      "type": "Feature",
      "properties": {
        "OBJECT_NAME": "COSMOS 2378",
        "OBJECT_ID": "2001-023A",
        "EPOCH": "2025-11-30T01:40:54.391008",
        "MEAN_MOTION": 13.74140297,
        "ECCENTRICITY": 0.0031792,
        "INCLINATION": 82.9282,
        "RA_OF_ASC_NODE": 9.1195,
        "ARG_OF_PERICENTER": 241.1136,
        "MEAN_ANOMALY": 181.7362,
        "EPHEMERIS_TYPE": 0,
        "CLASSIFICATION_TYPE": "U",
        "NORAD_CAT_ID": 26818,
        "ELEMENT_SET_NO": 999,
        "REV_AT_EPOCH": 22749,
        "BSTAR": 4.7236e-05,
        "MEAN_MOTION_DOT": 5.9e-07,
        "MEAN_MOTION_DDOT": 0,
        "norad_id": 26818,
        "name": "COSMOS 2378",
        "group": "musson",
        "longitude_deg": NaN,
        "latitude_deg": NaN,
        "alt_km": NaN,
        "orbit_class": "HEO",
        "timestamp": "2025-11-30T09:33:02.591940+00:00"
      },
      "geometry": {
        "type": "Point",
        "coordinates": [
          NaN,
          NaN
        ]
      }
    },
    {
      "type": "Feature",
      "properties": {
        "OBJECT_NAME": "COSMOS 2389",
        "OBJECT_ID": "2002-026A",
        "EPOCH": "2025-11-30T00:53:44.810880",
        "MEAN_MOTION": 13.75152646,
        "ECCENTRICITY": 0.0047798,
        "INCLINATION": 82.9493,
        "RA_OF_ASC_NODE": 316.3895,
        "ARG_OF_PERICENTER": 95.2165,
        "MEAN_ANOMALY": 326.415,
        "EPHEMERIS_TYPE": 0,
        "CLASSIFICATION_TYPE": "U",
        "NORAD_CAT_ID": 27436,
        "ELEMENT_SET_NO": 999,
        "REV_AT_EPOCH": 17974,
        "BSTAR": 7.0376e-05,
        "MEAN_MOTION_DOT": 8.4e-07,
        "MEAN_MOTION_DDOT": 0,
        "norad_id": 27436,
        "name": "COSMOS 2389",
        "group": "musson",
        "longitude_deg": NaN,
        "latitude_deg": NaN,
        "alt_km": NaN,
        "orbit_class": "HEO",
        "timestamp": "2025-11-30T09:33:02.591947+00:00"
      },
      "geometry": {
        "type": "Point",
        "coordinates": [
          NaN,
          NaN
        ]
      }
    },
    {
      "type": "Feature",
      "properties": {
        "OBJECT_NAME": "COSMOS 2398",
        "OBJECT_ID": "2003-023A",
        "EPOCH": "2025-11-30T03:45:59.635872",
        "MEAN_MOTION": 13.72383933,
        "ECCENTRICITY": 0.0032065,
        "INCLINATION": 82.9472,
        "RA_OF_ASC_NODE": 281.9715,
        "ARG_OF_PERICENTER": 145.6353,
        "MEAN_ANOMALY": 225.7548,
        "EPHEMERIS_TYPE": 0,
        "CLASSIFICATION_TYPE": "U",
        "NORAD_CAT_ID": 27818,
        "ELEMENT_SET_NO": 999,
        "REV_AT_EPOCH": 12644,
        "BSTAR": 4.8579e-05,
        "MEAN_MOTION_DOT": 6e-07,
        "MEAN_MOTION_DDOT": 0,
        "norad_id": 27818,
        "name": "COSMOS 2398",
        "group": "musson",
        "longitude_deg": NaN,
        "latitude_deg": NaN,
        "alt_km": NaN,
        "orbit_class": "HEO",
        "timestamp": "2025-11-30T09:33:02.591959+00:00"
      },
      "geometry": {
        "type": "Point",
        "coordinates": [
          NaN,
          NaN
        ]
      }
    },
    {
      "type": "Feature",
      "properties": {
        "OBJECT_NAME": "COSMOS 2429",
        "OBJECT_ID": "2007-038A",
        "EPOCH": "2025-11-30T01:26:34.608192",
        "MEAN_MOTION": 13.75147576,
        "ECCENTRICITY": 0.0039719,
        "INCLINATION": 82.9808,
        "RA_OF_ASC_NODE": 352.6569,
        "ARG_OF_PERICENTER": 72.2914,
        "MEAN_ANOMALY": 288.2572,
        "EPHEMERIS_TYPE": 0,
        "CLASSIFICATION_TYPE": "U",
        "NORAD_CAT_ID": 32052,
        "ELEMENT_SET_NO": 999,
        "REV_AT_EPOCH": 91428,
        "BSTAR": 6.2091e-05,
        "MEAN_MOTION_DOT": 7.5e-07,
        "MEAN_MOTION_DDOT": 0,
        "norad_id": 32052,
        "name": "COSMOS 2429",
        "group": "musson",
        "longitude_deg": NaN,
        "latitude_deg": NaN,
        "alt_km": NaN,
        "orbit_class": "HEO",
        "timestamp": "2025-11-30T09:33:02.591966+00:00"
      },
      "geometry": {
        "type": "Point",
        "coordinates": [
          NaN,
          NaN
        ]
      }
    },
    {
      "type": "Feature",
      "properties": {
        "OBJECT_NAME": "COSMOS 2454",
        "OBJECT_ID": "2009-039A",
        "EPOCH": "2025-11-30T02:25:01.068384",
        "MEAN_MOTION": 13.8992615,
        "ECCENTRICITY": 0.0020463,
        "INCLINATION": 82.9559,
        "RA_OF_ASC_NODE": 178.2256,
        "ARG_OF_PERICENTER": 107.5002,
        "MEAN_ANOMALY": 58.4644,
        "EPHEMERIS_TYPE": 0,
        "CLASSIFICATION_TYPE": "U",
        "NORAD_CAT_ID": 35635,
        "ELEMENT_SET_NO": 999,
        "REV_AT_EPOCH": 82974,
        "BSTAR": 5.8661e-05,
        "MEAN_MOTION_DOT": 8.8e-07,
        "MEAN_MOTION_DDOT": 0,
        "norad_id": 35635,
        "name": "COSMOS 2454",
        "group": "musson",
        "longitude_deg": NaN,
        "latitude_deg": NaN,
        "alt_km": NaN,
        "orbit_class": "HEO",
        "timestamp": "2025-11-30T09:33:02.591973+00:00"
      },
      "geometry": {
        "type": "Point",
        "coordinates": [
          NaN,
          NaN
        ]
      }
    }
  ]
}